{"type": "FeatureCollection", "features": [ {"type": "Feature", "properties": {"norad_id": 17070, "name": "POLAR BEAR", "group": "nnss", "lat": 80.6548134317234, "lon": 1.1342913309629714, "alt_km": 943.1289863240481, "timestamp": "2025-12-20T11:30:28.645785+00:00", "meta": {"OBJECT_NAME": "POLAR BEAR", "OBJECT_ID": "1986-088A", "EPOCH": "2025-12-20T01:20:19.536288", "MEAN_MOTION": 13.75252273, "ECCENTRICITY": 0.0041263, "INCLINATION": 89.617, "RA_OF_ASC_NODE": 183.4808, "ARG_OF_PERICENTER": 98.1805, "MEAN_ANOMALY": 64.6168, "EPHEMERIS_TYPE": 0, "CLASSIFICATION_TYPE": "U", "NORAD_CAT_ID": 17070, "ELEMENT_SET_NO": 999, "REV_AT_EPOCH": 96079, "BSTAR": 9.2171e-05, "MEAN_MOTION_DOT": 1e-06, "MEAN_MOTION_DDOT": 0}, "tle": {"line1": "1 17070U 86088A   25354.05578167  .00000100  00000+0  92171-4 0  9997", "line2": "2 17070  89.6170 183.4808 0041263  98.1805  64.6168 13.75252273960796"}}, "geometry": {"type": "Point", "coordinates": [1.1342913309629714, 80.6548134317234]}}, {"type": "Feature", "properties": {"norad_id": 18361, "name": "OSCAR 27", "group": "nnss", "lat": -53.13339449507127, "lon": -100.93732598218776, "alt_km": 1032.0037019735828, "timestamp": "2025-12-20T11:30:28.645795+00:00", "meta": {"OBJECT_NAME": "OSCAR 27", "OBJECT_ID": "1987-080A", "EPOCH": "2025-12-20T04:59:48.117120", "MEAN_MOTION": 13.44908124, "ECCENTRICITY": 0.0103519, "INCLINATION": 90.3741, "RA_OF_ASC_NODE": 79.5517, "ARG_OF_PERICENTER": 202.253, "MEAN_ANOMALY": 157.4109, "EPHEMERIS_TYPE": 0, "CLASSIFICATION_TYPE": "U", "NORAD_CAT_ID": 18361, "ELEMENT_SET_NO": 999, "REV_AT_EPOCH": 87657, "BSTAR": 0.00014474, "MEAN_MOTION_DOT": 9.6e-07, "MEAN_MOTION_DDOT": 0}, "tle": {"line1": "1 18361U 87080A   25354.20819580  .00000096  00000+0  14474-3 0  9991", "line2": "2 18361  90.3741  79.5517 0103519 202.2530 157.4109 13.44908124876578"}}, "geometry": {"type": "Point", "coordinates": [-100.93732598218776, -53.13339449507127]}}, {"type": "Feature", "properties": {"norad_id": 18362, "name": "OSCAR 29", "group": "nnss", "lat": -52.108031881730874, "lon": -100.46092760364853, "alt_km": 1022.3944399468937, "timestamp": "2025-12-20T11:30:28.645805+00:00", "meta": {"OBJECT_NAME": "OSCAR 29", "OBJECT_ID": "1987-080B", "EPOCH": "2025-12-20T05:08:03.659136", "MEAN_MOTION": 13.44449616, "ECCENTRICITY": 0.0104376, "INCLINATION": 90.3751, "RA_OF_ASC_NODE": 80.0114, "ARG_OF_PERICENTER": 225.4939, "MEAN_ANOMALY": 161.7997, "EPHEMERIS_TYPE": 0, "CLASSIFICATION_TYPE": "U", "NORAD_CAT_ID": 18362, "ELEMENT_SET_NO": 999, "REV_AT_EPOCH": 87610, "BSTAR": 0.00012395, "MEAN_MOTION_DOT": 8.2e-07, "MEAN_MOTION_DDOT": 0}, "tle": {"line1": "1 18362U 87080B   25354.21393124  .00000082  00000+0  12395-3 0  9999", "line2": "2 18362  90.3751  80.0114 0104376 225.4939 161.7997 13.44449616876100"}}, "geometry": {"type": "Point", "coordinates": [-100.46092760364853, -52.108031881730874]}}, {"type": "Feature", "properties": {"norad_id": 19070, "name": "OSCAR 23", "group": "nnss", "lat": -85.71939083137205, "lon": -167.65465672274442, "alt_km": 1202.6845403589314, "timestamp": "2025-12-20T11:30:28.645815+00:00", "meta": {"OBJECT_NAME": "OSCAR 23", "OBJECT_ID": "1988-033A", "EPOCH": "2025-12-20T01:17:13.826400", "MEAN_MOTION": 13.27788394, "ECCENTRICITY": 0.0190135, "INCLINATION": 90.3204, "RA_OF_ASC_NODE": 16.6192, "ARG_OF_PERICENTER": 159.6147, "MEAN_ANOMALY": 229.5476, "EPHEMERIS_TYPE": 0, "CLASSIFICATION_TYPE": "U", "NORAD_CAT_ID": 19070, "ELEMENT_SET_NO": 999, "REV_AT_EPOCH": 82350, "BSTAR": 0.00018124, "MEAN_MOTION_DOT": 9.9e-07, "MEAN_MOTION_DDOT": 0}, "tle": {"line1": "1 19070U 88033A   25354.05363225  .00000099  00000+0  18124-3 0  9990", "line2": "2 19070  90.3204  16.6192 0190135 159.6147 229.5476 13.27788394823509"}}, "geometry": {"type": "Point", "coordinates": [-167.65465672274442, -85.71939083137205]}}, {"type": "Feature", "properties": {"norad_id": 19071, "name": "OSCAR 32", "group": "nnss", "lat": 16.773670724210202, "lon": 16.667997586624498, "alt_km": 1241.86011161629, "timestamp": "2025-12-20T11:30:28.645826+00:00", "meta": {"OBJECT_NAME": "OSCAR 32", "OBJECT_ID": "1988-033B", "EPOCH": "2025-12-20T00:43:02.305056", "MEAN_MOTION": 13.27955116, "ECCENTRICITY": 0.0188914, "INCLINATION": 90.321, "RA_OF_ASC_NODE": 16.7508, "ARG_OF_PERICENTER": 146.5881, "MEAN_ANOMALY": 243.8277, "EPHEMERIS_TYPE": 0, "CLASSIFICATION_TYPE": "U", "NORAD_CAT_ID": 19071, "ELEMENT_SET_NO": 999, "REV_AT_EPOCH": 82362, "BSTAR": 0.00013088, "MEAN_MOTION_DOT": 7.5e-07, "MEAN_MOTION_DDOT": 0}, "tle": {"line1": "1 19071U 88033B   25354.02988779  .00000075  00000+0  13088-3 0  9993", "line2": "2 19071  90.3210  16.7508 0188914 146.5881 243.8277 13.27955116823620"}}, "geometry": {"type": "Point", "coordinates": [16.667997586624498, 16.773670724210202]}}, {"type": "Feature", "properties": {"norad_id": 19223, "name": "NOVA 2", "group": "nnss", "lat": 76.50796598513665, "lon": 78.31753861383513, "alt_km": 1162.7909163156692, "timestamp": "2025-12-20T11:30:28.645836+00:00", "meta": {"OBJECT_NAME": "NOVA 2", "OBJECT_ID": "1988-052A", "EPOCH": "2025-12-20T04:02:25.789056", "MEAN_MOTION": 13.2293656, "ECCENTRICITY": 0.0029956, "INCLINATION": 89.9869, "RA_OF_ASC_NODE": 78.2633, "ARG_OF_PERICENTER": 356.4251, "MEAN_ANOMALY": 38.7794, "EPHEMERIS_TYPE": 0, "CLASSIFICATION_TYPE": "U", "NORAD_CAT_ID": 19223, "ELEMENT_SET_NO": 999, "REV_AT_EPOCH": 81046, "BSTAR": 8.7487e-05, "MEAN_MOTION_DOT": 4.5e-07, "MEAN_MOTION_DDOT": 0}, "tle": {"line1": "1 19223U 88052A   25354.16835404  .00000045  00000+0  87487-4 0  9996", "line2": "2 19223  89.9869  78.2633 0029956 356.4251  38.7794 13.22936560810468"}}, "geometry": {"type": "Point", "coordinates": [78.31753861383513, 76.50796598513665]}}, {"type": "Feature", "properties": {"norad_id": 19419, "name": "OSCAR 25", "group": "nnss", "lat": -18.94882528978401, "lon": 20.28114656284567, "alt_km": 1137.050655988146, "timestamp": "2025-12-20T11:30:28.645864+00:00", "meta": {"OBJECT_NAME": "OSCAR 25", "OBJECT_ID": "1988-074A", "EPOCH": "2025-12-20T02:58:00.786144", "MEAN_MOTION": 13.42624651, "ECCENTRICITY": 0.0094843, "INCLINATION": 90.0339, "RA_OF_ASC_NODE": 20.2683, "ARG_OF_PERICENTER": 224.454, "MEAN_ANOMALY": 196.6413, "EPHEMERIS_TYPE": 0, "CLASSIFICATION_TYPE": "U", "NORAD_CAT_ID": 19419, "ELEMENT_SET_NO": 999, "REV_AT_EPOCH": 82739, "BSTAR": 0.00013432, "MEAN_MOTION_DOT": 8.7e-07, "MEAN_MOTION_DDOT": 0}, "tle": {"line1": "1 19419U 88074A   25354.12362021  .00000087  00000+0  13432-3 0  9997", "line2": "2 19419  90.0339  20.2683 0094843 224.4540 196.6413 13.42624651827393"}}, "geometry": {"type": "Point", "coordinates": [20.28114656284567, -18.94882528978401]}}, {"type": "Feature", "properties": {"norad_id": 19420, "name": "OSCAR 31", "group": "nnss", "lat": -43.07881309109891, "lon": -159.41246628651004, "alt_km": 1036.9391969543713, "timestamp": "2025-12-20T11:30:28.645886+00:00", "meta": {"OBJECT_NAME": "OSCAR 31", "OBJECT_ID": "1988-074B", "EPOCH": "2025-12-20T01:35:37.066272", "MEAN_MOTION": 13.4258585, "ECCENTRICITY": 0.0093204, "INCLINATION": 90.0354, "RA_OF_ASC_NODE": 20.6192, "ARG_OF_PERICENTER": 218.7647, "MEAN_ANOMALY": 168.678, "EPHEMERIS_TYPE": 0, "CLASSIFICATION_TYPE": "U", "NORAD_CAT_ID": 19420, "ELEMENT_SET_NO": 999, "REV_AT_EPOCH": 82749, "BSTAR": 0.00014637, "MEAN_MOTION_DOT": 9.4e-07, "MEAN_MOTION_DDOT": 0}, "tle": {"line1": "1 19420U 88074B   25354.06640123  .00000094  00000+0  14637-3 0  9990", "line2": "2 19420  90.0354  20.6192 0093204 218.7647 168.6780 13.42585850827499"}}, "geometry": {"type": "Point", "coordinates": [-159.41246628651004, -43.07881309109891]}}]}